First Name,Last Name,Phone,State,Country
 

Soubhik
,Mondal
,78979678335
,West Bengal
,India
,
Ram
,Sarkar
,0943758989
,Punjab
,India
,
Sam
,Gomez
,89967855476
,West Bengal
,India
,
Soubhik
,Mondal
,78979678335
,West Bengal
,India
,
Ram
,Sarkar
,0943758989
,Punjab
,India
,
Sam
,Gomez
,89967855476
,West Bengal
,India
,
Soubhik
,Mondal
,78979678335
,West Bengal
,India
,
Ram
,Sarkar
,0943758989
,Punjab
,India
,
Sam
,Gomez
,89967855476
,West Bengal
,India
,
Soubhik
,Mondal
,78979678335
,West Bengal
,India
,
Ram
,Sarkar
,0943758989
,Punjab
,India
,
Sam
,Gomez
,89967855476
,West Bengal
,India
,
Soubhik
,Mondal
,78979678335
,West Bengal
,India
,
Ram
,Sarkar
,0943758989
,Punjab
,India
,
Sam
,Gomez
,89967855476
,West Bengal
,India
,
Soubhik
,Mondal
,78979678335
,West Bengal
,India
,
Ram
,Sarkar
,0943758989
,Punjab
,India
,
Sam
,Gomez
,89967855476
,West Bengal
,India
,
Soubhik
,Mondal
,78979678335
,West Bengal
,India
,
Ram
,Sarkar
,0943758989
,Punjab
,India
,
Sam
,Gomez
,89967855476
,West Bengal
,India
,
